FENGYUN 1C DEB          
1 37921U 99025ENW 25065.36150047  .00000252  00000+0  21341-3 0  9993
2 37921  99.0580 112.0212 0084419 148.3847 212.2425 13.94946779592244
FENGYUN 1C DEB          
1 37925U 99025EPA 25067.26263038  .00014346  00000+0  21667-2 0  9992
2 37925  99.1158 261.0103 0064405 134.9302 225.7153 14.73005359615582
FENGYUN 1C DEB          
1 37926U 99025EPB 25068.75178964  .00005263  00000+0  23703-2 0  9992
2 37926  98.7421 134.1439 0053119 306.0211 179.7983 14.21920154703167
FENGYUN 1C DEB          
1 37927U 99025EPC 25066.62518072  .00025329  00000+0  56228-2 0  9998
2 37927  98.7979 191.0843 0003299  82.2647 277.8924 14.57010366610174
FENGYUN 1C DEB          
1 37928U 99025EPD 25065.34092105  .00002622  00000+0  89396-3 0  9995
2 37928  98.9514 289.5266 0074131 139.1989 221.4779 14.35781832771527
FENGYUN 1C DEB          
1 38116U 99025EPM 25059.36166731  .00001660  00000+0  83901-3 0  9994
2 38116  98.7425 103.5684 0071166 248.6420 175.4875 14.16238909604167
FENGYUN 1C DEB          
1 38121U 99025EPS 25065.62692406  .00006217  00000+0  23703-2 0  9995
2 38121  99.0818 208.5399 0212989 209.5267 149.3742 14.19474021799288
FENGYUN 1C DEB          
1 38122U 99025EPT 25068.47486293  .00005050  00000+0  11578-2 0  9998
2 38122  98.3176  77.8285 0231159 278.0561  79.4462 14.40883094637299
FENGYUN 1C DEB          
1 38124U 99025EPV 25059.27529310  .00000585  00000+0  77218-3 0  9998
2 38124  97.7859  77.1757 0355890 330.9765  27.1989 13.40764395507293
FENGYUN 1C DEB          
1 38130U 99025EQB 25065.43601549  .00002638  00000+0  23492-2 0  9990
2 38130  98.6121 143.5970 0209953 261.7348  95.9948 13.75967306654121
FENGYUN 1C DEB          
1 38135U 99025EQG 25062.42060343  .00002389  00000+0  81203-3 0  9990
2 38135  98.6933 122.2652 0225915 178.1019 182.1071 14.24154616569926
FENGYUN 1C DEB          
1 38137U 99025EQJ 25066.39007910  .00000493  00000+0  32476-3 0  9995
2 38137  98.8993 114.5404 0047224 133.2888 227.2234 14.05820198597697
FENGYUN 1C DEB          
1 38143U 99025EQQ 25066.36400052  .00001477  00000+0  94627-3 0  9992
2 38143  99.0571 123.4015 0055634 280.1863  79.3032 14.04203405563471
FENGYUN 1C DEB          
1 38144U 99025EQR 25062.32807522  .00002338  00000+0  24875-2 0  9992
2 38144  98.9881 270.5111 0292298 205.7293 152.9059 13.58070770809772
FENGYUN 1C DEB          
1 38146U 99025EQT 25064.34706509  .00007926  00000+0  13595-2 0  9996
2 38146  99.5149 105.2959 0213918 226.6883 142.9710 14.55121722277674
FENGYUN 1C DEB          
1 38147U 99025EQU 25067.30146026  .00002221  00000+0  10015-2 0  9995
2 38147  98.5746  89.0573 0051576  33.6776 326.7661 14.22474403564133
FENGYUN 1C DEB          
1 38149U 99025EQW 25068.29472822  .00001072  00000+0  45735-3 0  9993
2 38149  98.3473  73.6257 0076852 260.0094  99.2407 14.25476946665208
FENGYUN 1C DEB          
1 38155U 99025ERC 25055.49355633  .00012307  00000+0  54514-2 0  9995
2 38155  98.4538 331.7028 0102516 259.9162  99.0437 14.20454566829631
FENGYUN 1C DEB          
1 38157U 99025ERE 25065.38605244  .00002974  00000+0  96481-3 0  9991
2 38157  99.6821 305.7426 0279346 183.2708 176.6647 14.19913660722523
FENGYUN 1C DEB          
1 38159U 99025ERG 25065.47097673  .00001074  00000+0  71217-3 0  9994
2 38159  99.3477 310.0904 0057285  33.9869 326.4945 14.02961100791676
FENGYUN 1C DEB          
1 38163U 99025ERL 25068.85980651  .00002129  00000+0  13155-2 0  9999
2 38163  99.1536 103.0630 0075475 294.1560  65.1728 14.05052188206386
FENGYUN 1C DEB          
1 38166U 99025ERP 25068.22408159  .00014199  00000+0  58622-2 0  9999
2 38166  99.0756 160.2175 0061932 131.3967 229.2558 14.25798099597968
FENGYUN 1C DEB          
1 38169U 99025ERS 25067.06224670  .00017763  00000+0  35845-2 0  9999
2 38169  98.9646  15.4536 0033629 205.5334 154.4205 14.61134956788004
FENGYUN 1C DEB          
1 38173U 99025ERW 25064.89864185  .00003954  00000+0  12126-2 0  9997
2 38173  99.0264 312.3929 0169104 218.6890 140.2082 14.34374038739416
FENGYUN 1C DEB          
1 38491U 99025ESA 25060.27570552  .00001508  00000+0  91315-3 0  9991
2 38491  98.9427  74.6224 0228658  94.8925 267.8384 13.95663808750806
FENGYUN 1C DEB          
1 38492U 99025ESB 25067.97628256  .00014387  00000+0  92508-2 0  9994
2 38492  98.6054 159.3949 0245408 198.8781 160.3158 13.89511485716301
FENGYUN 1C DEB          
1 38493U 99025ESC 25067.68230177  .00000661  00000+0  49545-3 0  9998
2 38493  99.0432  45.9943 0427591 249.6347 105.8381 13.61889315526995
FENGYUN 1C DEB          
1 38494U 99025ESD 25067.19920244  .00014638  00000+0  55754-2 0  9993
2 38494  98.4202  39.6609 0409017  73.4990 291.0694 13.93513155723628
FENGYUN 1C DEB          
1 38495U 99025ESE 25060.88493015  .00003614  00000+0  34543-2 0  9999
2 38495  99.1899  90.9479 0257634 163.6895 197.2740 13.67337341714492
FENGYUN 1C DEB          
1 38496U 99025ESF 25067.28947473  .00002086  00000+0  11940-2 0  9991
2 38496  98.7747  84.2671 0080337  76.9613 284.0511 14.08935921770822
FENGYUN 1C DEB          
1 38498U 99025ESH 25066.41418755  .00000883  00000+0  15989-2 0  9993
2 38498  99.7206 116.8840 0555121 348.6856  10.2180 12.96010191501114
FENGYUN 1C DEB          
1 38510U 99025ESV 25068.31878279  .00002173  00000+0  11469-2 0  9993
2 38510  98.6102  88.0585 0097867 225.0778 134.2424 14.12447736847386
FENGYUN 1C DEB          
1 38512U 99025ESX 25066.22950145  .00001613  00000+0  14828-2 0  9996
2 38512  98.3956 342.1746 0227855 140.4524 221.3502 13.72946259557197
FENGYUN 1C DEB          
1 38513U 99025ESY 25064.50751087  .00023835  00000+0  23932-2 0  9996
2 38513  97.6429 343.1657 0287503  75.8117 287.4844 14.65156995595098
FENGYUN 1C DEB          
1 38514U 99025ESZ 25068.61427881  .00023398  00000+0  93590-2 0  9996
2 38514  98.0374 126.5647 0298366  99.3318 264.1718 14.06849068840740
FENGYUN 1C DEB          
1 38516U 99025ETB 25067.69713282  .00000587  00000+0  21258-3 0  9996
2 38516  98.4191  58.5985 0110104 234.4943 124.5933 14.33726554808747
FENGYUN 1C DEB          
1 38717U 99025ETJ 25066.25481662  .00004546  00000+0  22224-2 0  9996
2 38717  99.1676  72.1184 0061323  69.9392 354.5096 14.17473876737706
FENGYUN 1C DEB          
1 38722U 99025ETP 25067.94897715  .00020015  00000+0  44258-2 0  9999
2 38722  99.3645 133.8676 0172452 205.8403 153.4099 14.48423449794304
FENGYUN 1C DEB          
1 38724U 99025ETR 25064.47943042  .00010661  00000+0  56157-2 0  9998
2 38724  98.7451  80.2634 0136176 153.5336 207.2874 14.09468441690054
FENGYUN 1C DEB          
1 38725U 99025ETS 25067.25740600  .00007896  00000+0  26548-2 0  9990
2 38725  98.8540 182.7354 0034476   5.8676 354.2907 14.37069657693306
FENGYUN 1C DEB          
1 38726U 99025ETT 25067.16791122  .00049479  00000+0  80063-2 0  9991
2 38726  99.1516  50.2907 0034052 307.6274  52.1840 14.70673403725026
FENGYUN 1C DEB          
1 38728U 99025ETV 25068.67521041  .00012560  00000+0  22359-2 0  9996
2 38728  99.2370  20.2281 0079922 185.1081 299.4639 14.65158745615312
FENGYUN 1C DEB          
1 38789U 99025EUD 25067.89400529  .00004181  00000+0  94583-3 0  9992
2 38789  98.8946 301.4578 0213404 137.9131 290.2285 14.43646946759385
FENGYUN 1C DEB          
1 38795U 99025EUK 25064.89282445  .00004210  00000+0  46150-2 0  9990
2 38795  98.7073 130.6522 0506785 234.0452 121.2657 13.28242377747683
FENGYUN 1C DEB          
1 38797U 99025EUM 25068.47814482  .00000359  00000+0  43215-3 0  9992
2 38797  99.5084 328.7599 0244851 211.1211 147.5232 13.61414405554969
FENGYUN 1C DEB          
1 38799U 99025EUP 25066.94588416  .00008539  00000+0  20289-2 0  9992
2 38799  98.4228 143.8990 0174170 120.4418 241.4109 14.45245132599921
FENGYUN 1C DEB          
1 38801U 99025EUR 25061.95037713  .00003821  00000+0  89463-3 0  9990
2 38801  98.4092 124.7907 0355222 107.1323  63.0013 14.22953861777926
FENGYUN 1C DEB          
1 38803U 99025EUT 25062.91328850  .00006161  00000+0  28395-2 0  9990
2 38803  99.1314  56.6372 0069040 124.7777 235.9922 14.20150403814346
FENGYUN 1C DEB          
1 38809U 99025EUZ 25067.26575230  .00002596  00000+0  10191-2 0  9998
2 38809  98.6043  86.1847 0226748  53.8895 308.3040 14.17078037652460
FENGYUN 1C DEB          
1 38812U 99025EVC 25049.43131595  .00003292  00000+0  31908-2 0  9996
2 38812  98.4329 289.6077 0262068  98.9863 264.1042 13.66057265710687
FENGYUN 1C DEB          
1 38813U 99025EVD 25068.22121445  .00002214  00000+0  10772-2 0  9997
2 38813  99.3280  50.2579 0005703 171.5272 188.5999 14.19314608742979
FENGYUN 1C DEB          
1 38818U 99025EVJ 25065.41307869  .00002129  00000+0  68130-3 0  9993
2 38818  98.3313 130.1986 0088624 224.0878 149.7205 14.38379204632026
FENGYUN 1C DEB          
1 38819U 99025EVK 25067.24958089  .00001560  00000+0  74938-3 0  9994
2 38819  98.6070  67.9416 0079558 281.5978  88.2474 14.18647199595145
FENGYUN 1C DEB          
1 38824U 99025EVQ 25067.28367845  .00007526  00000+0  40752-2 0  9992
2 38824  99.2865 190.5148 0101893 260.6479  98.3158 14.10160198651928
FENGYUN 1C DEB          
1 38827U 99025EVT 25066.34412781  .00004346  00000+0  12738-2 0  9991
2 38827  98.4131  97.9569 0223955  64.8655 297.5580 14.30778674570477
FENGYUN 1C DEB          
1 38829U 99025EVV 25061.35476963  .00001931  00000+0  11411-2 0  9995
2 38829  98.7684  85.3845 0042843 115.6559 244.9046 14.08470870601140
FENGYUN 1C DEB          
1 38832U 99025EVY 25068.89098048  .00003489  00000+0  21886-2 0  9996
2 38832  99.2876 107.5436 0087254  89.1645 271.9517 14.03293983598592
FENGYUN 1C DEB          
1 39536U 99025EWD 25057.84592409  .00002754  00000+0  26492-2 0  9993
2 39536  99.8106  92.7017 0242043 275.8285  81.5317 13.68855707578093
FENGYUN 1C DEB          
1 39537U 99025EWE 25067.20229435  .00002566  00000+0  21317-2 0  9993
2 39537  99.1364 220.4900 0176745   9.8464 350.6082 13.82632800553919
FENGYUN 1C DEB          
1 39541U 99025EWJ 25066.39683791  .00001761  00000+0  83468-3 0  9998
2 39541  98.7080 113.3929 0073441 159.8114 200.5993 14.19439145550247
